Num,No.,Source,Name,Alternate,Part Of,Lat,Long,Marathi,Marathi Alternate,Type,Nearby Village,Dist,State,Type,Height-Sealevel,Height Bottom,Nearby Village,Dist,State
450,62,SK,Tarapur,None,,72.682071,19.86362,???????,?????,??????????,???????,?????,??????????,Seaside,0,15,Tarapur,Palghar,Maharashtra
533,145,SK,Shirgaon,None,,72.713428,19.696276,??????,?????,??????????,??????,?????,??????????,Seaside,5,10,Shirgaon,Palghar,Maharashtra
444,56,SK,Dahanu,None,,72.720553,19.972557,??????,?????,??????????,??????,?????,??????????,Seaside,15,10,Dahanu,Palghar,Maharashtra
505,117,SK,Mahim-Kelve,None,,72.721158,19.642555,?????-?????,?????,??????????,?????,?????,??????????,Seaside,5,10,Mahim,Palghar,Maharashtra
418,30,SK,Kelve-Pankot,None,,72.726386,19.5989,?????-??????,?????,???????,?????,????,??????????,Island,0,10,Kelve,Thane,Maharashtra
393,5,SK,Arnala,None,,72.7324,19.465783,???????,?????,???????,???????,?????,??????????,Island,0,30,Arnala,Palghar,Maharashtra
69,69,SB,Khanderi,,Constructed,72.813048,18.7042,???????,?????,???????,??,?????,??????????,Island,0,25,Thal,Raigad,Maharashtra
333,99,WS,Vasai,Saint Sebastian,,72.815151,19.330643,???,????? ??????????,??????????,???,?????,??????????,Seaside,0,10,Vasai,Palghar,Maharashtra
403,15,SK,Underi,Jaidurg,,72.841995,18.706751,??????,???????,???????,??,?????,??????????,Island,0,5,Thal,Raigad,Maharashtra
456,68,SK,Thal,Khubladha,,72.856551,18.699383,??,??????,??????????,??,?????,??????????,Seaside,0,5,Thal,Raigad,Maharashtra
464,76,SK,Dharavi-Sion,None,,72.860136,19.050972,??????-???,?????,??????????,??????,????,??????????,Seaside,25,5,Dongri,Thane,Maharashtra
416,28,SK,Kulaba,Alibag,,72.864161,18.634361,??????,??????,???????,???????,?????,??????????,Island,0,15,Shreebag,Raigad,Maharashtra
539,151,SK,Sarjekot-Alibag,None,,72.865583,18.637872,????????-??????,?????,???????,??????,?????,??????????,Island,5,15,Alibag,Raigad,Maharashtra
557,169,SK,Hirakot,None,,72.868982,18.648332,???????,?????,??????????,??????,?????,??????????,Seaside,25,25,Alibag,Raigad,Maharashtra
535,147,SK,Shreevardhangad,None,,72.882185,18.801546,???????????,?????,??????????,??????,?????,??????????,Seaside,75,75,Mandve,Raigad,Maharashtra
268,34,WS,Korlai,Korlai Fort,,72.908192,18.536461,???????,?????,??????????,???????,?????,??????????,Seaside,90,90,Korlai,Raigad,Maharashtra
397,9,SK,Asherigad,None,,72.92188,19.821367,???????,?????,??????,??????,?????,??????????,Mountain,512,350,Khadkavne,Palghar,Maharashtra
400,12,SK,Agarkot,None,,72.927804,18.546592,??????,?????,??????????,???,?????,??????????,Seaside,0,10,Chowl,Raigad,Maharashtra
520,132,SK,Revdanda,None,,72.927804,18.546592,???????,?????,??????????,???????,?????,??????????,Seaside,0,10,Revdanda,Raigad,Maharashtra
473,85,SK,Padmadurg,"Kansa, Pradurg",,72.932535,18.321988,?????????,"?????, ????????",???????,?????,?????,??????????,Island,0,15,Murud,Raigad,Maharashtra
429,41,SK,Gharapuri,Elephanta,,72.934306,18.964111,????????,???????,???????,"?????, ???",?????,??????????,Island,125,125,"Mumbai, Uran",Raigad,Maharashtra
463,75,SK,Dronagiri,None,,72.935781,18.866788,??????????,?????,??????????,??????????,?????,??????????,Seaside,25,40,Dronagiri,Raigad,Maharashtra
515,127,SK,Rajkot-chowl,None,,72.943333,18.553333,??????-???,?????,??????????,???,?????,??????????,Seaside,0,0,Chowl,Raigad,Maharashtra
542,154,SK,Sagargad,Kheddurg,,72.958638,18.65687,??????,????????,??????,??????,?????,??????????,Mountain,415,350,Poinad,Raigad,Maharashtra
543,155,SK,Samrajgad,None,,72.959578,18.314258,????????,?????,??????????,?????,?????,??????????,Seaside,75,75,Murud,Raigad,Maharashtra
267,33,WS,Murud-Janjira,Murud-Janjira Fort,,72.9644331,18.2999036,,,,,,,,,,,,
438,50,SK,Janjira,Jazeer-e-mahroob,,72.964454,18.299936,??????,????-?-?????,???????,"?????, ????",?????,??????????,Island,0,25,"Murud, Dighi",Raigad,Maharashtra
443,55,SK,Thane,None,,72.983208,19.199941,????,?????,??????????,????,????,??????????,Seaside,25,15,Thane,Thane,Maharashtra
490,102,SK,Belapur,None,,73.027198,19.007796,???????,?????,??????????,???????,????,??????????,Seaside,10,10,Belapur,Thane,Maharashtra
489,101,SK,Birwadi,"Chanera, Bhavanigad",,73.041216,18.424603,???????,"??????, ???????",??????,?????,?????,??????????,Mountain,240,100,Chanere,Raigad,Maharashtra
488,100,SK,Bankot,Himmatgad,,73.042399,17.973253,??????,????????,??????????,??????,?????????,??????????,Seaside,25,10,Bankot,Ratnagiri,Maharashtra
550,162,SK,Suvarnadurg,"Suvarnadurga Fort, ??????????? ??????",,73.084445,17.816768,???????????,?????,???????,?????,?????????,??????????,Island,0,25,Harne,Ratnagiri,Maharashtra
406,18,SK,Kanakdurg,None,,73.089166,17.809045,????????,?????,??????????,?????,?????????,??????????,Seaside,10,15,Harne,Ratnagiri,Maharashtra
279,45,WS,Fattegad,Fattegad Fort,,73.089724,17.812151,???????,?????,??????????,?????,?????????,??????????,Seaside,15,15,Harne,Ratnagiri,Maharashtra
427,39,SK,Gova,None,,73.090625,17.815583,????,?????,??????????,?????,?????????,??????????,Seaside,15,15,Harne,Ratnagiri,Maharashtra
430,42,SK,Ghosalgad,None,,73.090864,18.364483,???????,?????,??????,??????,?????,??????????,Mountain,260,200,Ghosale,Raigad,Maharashtra
264,30,WS,Harnai,Harnai Fort,,73.0955493,17.8124827,,,,,,,,,,,,
395,7,SK,Avchitgad,None,,73.118023,18.473895,???????,?????,??????,????,?????,??????????,Mountain,390,300,Roha,Raigad,Maharashtra
459,71,SK,Durgadi,Kalyan,,73.118209,19.245428,????????,??????,??????????,??????,????,??????????,Seaside,25,25,Kalyan,Thane,Maharashtra
408,20,SK,Karnala,None,,73.118348,18.881458,???????,?????,??????,???????,?????,??????????,Mountain,475,400,Karnala,Raigad,Maharashtra
541,153,SK,Sankshi,Badruddin,,73.130949,18.787124,??????,????????,??????,"?????????, ???????",?????,??????????,Mountain,200,150,"Chunabhatti, Nidhivli",Raigad,Maharashtra
449,61,SK,Talgad,None,,73.135475,18.292674,????,?????,??????,???,?????,??????????,Mountain,125,150,Tale,Raigad,Maharashtra
271,37,WS,Gopalgad,Anjanvel,,73.151929,17.571467,???????,???????,??????????,???????,?????????,??????????,Seaside,50,50,Anjanvel,Ratnagiri,Maharashtra
502,114,SK,Malanggad,Shree Malang,,73.17844,19.110532,??????,???? ????,??????,??????,????,??????????,Mountain,540,450,Malanggad,Thane,Maharashtra
275,41,WS,Dabhol,Dabhol Fort,,73.1819057,17.5946634,,,,,,,,,,,,
272,38,WS,Affan,Affan Fort,,73.2197691,17.2942578,,,,,,,,,,,,
439,51,SK,Jaigad,None,,73.221356,17.300842,????,?????,??????????,????,?????????,??????????,Seaside,75,50,Jaigad,Ratnagiri,Maharashtra
246,12,WS,Jaygad,Jaygad,,73.2214737,17.3005753,,,,,,,,,,,,
485,97,SK,Prabalgad,None,,73.226877,18.974265,???????,?????,??????,???????,?????,??????????,Mountain,730,600,Prabalgad,Raigad,Maharashtra
538,150,SK,Sarasgad,None,Karnataka 1,73.227838,18.543143,?????,?????,??????,????,?????,??????????,Mountain,450,325,Pali,Raigad,Maharashtra
402,14,SK,Irshal,Vishalgad,,73.232465,18.934636,????????,???????,??????,??????????,?????,??????????,Mountain,450,350,Irshalwadi,Raigad,Maharashtra
276,42,WS,Panhaldurg,Panhaldurg Fort,,73.2348294,17.6480541,,,,,,,,,,,,
277,43,WS,Pranaldurg,Pranaldurg (Padmanabhdurg) Fort,,73.2423832,17.6430076,,,,,,,,,,,,
266,32,WS,Mandangad,Mandangad fort,,73.2429931,17.981908,,,,,,,,,,,,
493,105,SK,Bhandargad,None,,73.245768,19.476916,????????,?????,??????,??????,????,??????????,Mountain,795,400,Mahuli,Thane,Maharashtra
432,44,SK,Chanderi,None,,73.246296,19.064025,??????,?????,??????,???????,?????,??????????,Mountain,790,700,Chincholi,Raigad,Maharashtra
506,118,SK,Mahuli,None,,73.247719,19.484763,??????,?????,??????,??????,????,??????????,Mountain,500,400,Mahuli,Thane,Maharashtra
476,88,SK,Palasgad,None,,73.250278,19.491617,?????,?????,??????,??????,????,??????????,Mountain,795,400,Mahuli,Thane,Maharashtra
247,13,WS,Ratnadurg,Ratnadurg,,73.269968,16.9961153,,,,,,,,,,,,
512,124,SK,Ratnagiri,"Ratnadurg, Bhagwati",,73.269968,16.996146,?????????,"?????????, ?????",??????????,?????????,?????????,??????????,Seaside,30,30,Ratnagiri,Ratnagiri,Maharashtra
340,106,WS,Purnagad,Purnagad Fort,,73.3149561,16.8080173,,,,,,,,,,,,
482,94,SK,Poornagad,None,,73.315276,16.808023,???????,?????,??????????,???????,?????????,??????????,Seaside,40,10,Poornagad,Ratnagiri,Maharashtra
547,159,SK,Sudhagad,Bhorapgad,,73.321209,18.537397,??????,??????,??????,???????,?????,??????????,Mountain,620,400,Pachhapur,Raigad,Maharashtra
390,2,SK,Ambolgad,None,,73.328538,16.641605,???????,?????,??????????,???????,?????????,??????????,Seaside,0,15,Jaitapur,Ratnagiri,Maharashtra
529,141,SK,Vijaydurg,Gheriya,,73.333547,16.561032,?????????,??????,??????????,?????????,??????????,??????????,Seaside,0,50,Vijaydurg,Sindhudurg,Maharashtra
314,80,WS,Dasgaon,Fort Dasgaon,,73.3558392,18.0908572,,,,,,,,,,,,
2,2,SB,Ghangad,Dhangad,Won,73.359189,18.545941,????,????,??????,??????,????,??????????,Mountain,782,200,Yekole,Pune,Maharashtra
252,18,WS,Devgad,Devgad,Karnataka Bellow Ghat,73.372139,16.387611,?????,?????,??????????,?????,??????????,??????????,Seaside,50,50,Devgad,Sindhudurg,Maharashtra
419,31,SK,Korigad,None,,73.38587,18.619621,??????,?????,??????,??????,????,??????????,Mountain,930,250,Ambavne,Pune,Maharashtra
316,82,WS,Songad,Songad Fort,Constructed,73.387741,18.097321,?????,?????,??????,????????,?????,??????????,Mountain,300,250,Mohopre,Raigad,Maharashtra
518,130,SK,Rajmachi,"Shreevardhan, Manaranjan",,73.396912,18.828479,???????,"?????????, ??????",??????,???????,????,??????????,Mountain,830,180,Rajmachi,Pune,Maharashtra
273,39,WS,Navtedurg,Navtedurg Fort ?????????,,73.4028504,17.412348,,,,,,,,,,,,
414,26,SK,Kurdugad,Vishramgad,,73.418722,18.374235,???????,?????????,??????,????,?????,??????????,Mountain,620,380,Jite,Raigad,Maharashtra
447,59,SK,Dhak,None,,73.424892,18.881762,???,?????,??????,"???????, ?????",?????,??????????,Mountain,890,250,"Udhewadi, Jambhali",Raigad,Maharashtra
315,81,WS,"Mahendragad, Chambhargad","Fort Mahendragad, Chambhargad",,73.4290708,18.0948064,,,,,,,,,,,,
434,46,SK,Chambhargad,Mahendragad,,73.438631,18.099174,????????,??????????,??????,??????????,?????,??????????,Mountain,235,200,Chambharkhind,Raigad,Maharashtra
239,5,WS,Raigad,"Nandadeep, Rairi, Rasvita, Tanas, Islamgad",,73.445148,18.23571,?????,"???????, ?????, ???????, ???, ????????",??????,?????,?????,??????????,Mountain,862,400,Pachad,Raigad,Maharashtra
265,31,WS,Kondhavi,Kondhavi Fort,,73.4543645,17.9209228,,,,,,,,,,,,
342,108,WS,Satavali,Satavali fort (???????? ??????),,73.4564278,16.7584123,,,,,,,,,,,,
516,128,SK,Rajkot-Malvan,None,,73.458054,16.054176,??????-?????,?????,??????????,?????,??????????,??????????,Seaside,0,0,Malvan,Sindhudurg,Maharashtra
545,157,SK,Sindhudurg,"Kurte Bet ,Sindhudurga",Constructed,73.459589,16.042452,??????????,????? ???,???????,?????,??????????,??????????,Island,0,0,Malvan,Sindhudurg,Maharashtra
540,152,SK,Sarjekot-Malvan,None,,73.458168,16.054201,????????-?????,?????,??????????,?????,??????????,??????????,Seaside,0,10,Malvan,Sindhudurg,Maharashtra
452,64,SK,Tung,Kathingad,Constructed,73.462759,18.660013,????,??????,??????,????????? ???? -,????,??????????,Mountain,1070,200,Tungawadi,Pune,Maharashtra
472,84,SK,Padmagad,None,Constructed,73.464578,16.047303,??????,?????,???????,?????,??????????,??????????,Island,0,10,Malvan,Sindhudurg,Maharashtra
377,143,WS,Hari Har Gad Trumbak,Hari Har Gad Trumbak,,73.4721579,19.905223,,,,,,,,,,,,
524,136,SK,Lohagad,Lohgad Fort,Won,73.476759,18.710006,?????,?????,??????,?????????,????,??????????,Mountain,1040,390,Lohagadwadi,Pune,Maharashtra
248,14,WS,Gowalkot,Gowalkot,,73.4879351,17.5465393,,,,,,,,,,,,
260,26,WS,Visapur,Visapur Fort,,73.49054,18.721741,???????,?????,??????,"?????????, ?????",????,??????????,Mountain,1085,400,"Lohagadwadi, Malavali",Pune,Maharashtra
491,103,SK,Bhagwantgad,None,,73.496187,16.183629,???????,?????,??????????,???????,??????????,??????????,Seaside,75,75,Bhagwantgad,Sindhudurg,Maharashtra
492,104,SK,Bharatgad,None,,73.499399,16.171681,?????,?????,??????????,?????,??????????,??????????,Seaside,75,75,Masure,Sindhudurg,Maharashtra
504,116,SK,Mahipatgad,None,Constructed,73.511287,17.80863,???????,?????,??????,??????,?????????,??????????,Mountain,960,400,Dahivli,Ratnagiri,Maharashtra
12,12,SB,Rasalgad,,Won,73.511667,17.764597,??????,?????,??????,"???????, ????????",?????????,??????????,Mountain,535,400,"Zhapwadi, Rasalwadi",Ratnagiri,Maharashtra
470,82,SK,Nivti,Nivati,,73.511881,15.93842,?????,?????,??????????,?????,??????????,??????????,Seaside,30,30,Nivti,Sindhudurg,Maharashtra
549,161,SK,Sumargad,None,,73.512286,17.810904,???????,?????,??????,??????????,?????????,??????????,Mountain,883,450,Beldarwadi,Ratnagiri,Maharashtra
451,63,SK,Tikona,"Vitandagad, Vidgad",Constructed,73.512353,18.631721,??????,???????,??????,????????? ???? -,????,??????????,Mountain,1085,250,Peth Tikona,Pune,Maharashtra
483,95,SK,Peth,Kothaligad,,73.512822,18.992492,???,???????,??????,???????,?????,??????????,Mountain,475,350,Ambivli,Raigad,Maharashtra
5,5,SB,Lingana,,Won,73.51519,18.245781,???????,?????,??????,???????????,?????,??????????,Mountain,650,380,Linganawadi,Raigad,Maharashtra
335,101,WS,Metghar,Metghar Killa,,73.5211286,19.9210524,,,,,,,,,,,,
455,67,SK,Tryambakgad,Shreegad,Won,73.526347,19.915501,??????????,??????,??????,?????????????,?????,??????????,Mountain,1294,350,Tryambakeshwar,Nashik,Maharashtra
426,38,SK,Gorakhgad,None,,73.540236,19.19232,??????,?????,??????,???????,????,??????????,Mountain,651,400,Narivli,Thane,Maharashtra
497,109,SK,Bhorgiri,None,,73.568315,19.049768,???????,?????,??????,???????,????,??????????,Mountain,686,100,Bhorgiri,Pune,Maharashtra
250,16,WS,Bhavanigad,Bhavanigad Fort,,73.5698984,17.2479668,,,,,,,,,,,,
57,57,SB,Kangori,Mangalgad,Constructed,73.578772,18.051524,???????,??????,??????,????????,?????,??????????,Mountain,575,350,Pimpalgaon,Raigad,Maharashtra
241,7,WS,Pratapgad,Bhorpya,Constructed,73.577838,17.936444,????????,???????,??????,????????,??????,??????????,Mountain,1075,150,Kumbhroshi,Satara,Maharashtra
254,20,WS,Vetalgad,Vetalgad,,73.59922392,16.0661265,,,,,,,,,,,,
498,110,SK,Makarandgad,"Madhumakarandgad, Madhugad",,73.600359,17.850201,???????,"??????????, ?????",??????,"???????, ??????, ???????",??????,??????????,Mountain,1230,380,"Chaturbet, Hatlot, Ghonaspur",Satara,Maharashtra
413,25,SK,Kawlya,Kavlya,,73.607902,18.139433,???????,?????,??????,"??????, ???????",????,??????????,Mountain,647,500,"Mazheri, Parmachi",Pune,Maharashtra
292,58,WS,Ramgad,Ramgad Fort,Karnataka Bellow Ghat,73.6116922,16.2373893,,,,,,,,,,,,
339,105,WS,Kharepatan,Kharepatan Fort,,73.6185373,16.5572278,,,,,,,,,,,,
336,102,WS,Kavnai,Kavnai Fort,,73.619341,19.773055,?????,?????,??????,?????,?????,??????????,Mountain,914,305,Kavnai,Nashik,Maharashtra
433,45,SK,Chandragad,Dhavalgad,,73.619004,18.001619,???????,?????,??????,????,?????,??????????,Mountain,690,450,Dhavale,Raigad,Maharashtra
313,79,WS,Mohangad,Mohangad Fort (Durgadicha Killa),Constructed,73.6206587,18.0776679,,,,,,,,,,,,
259,25,WS,Torna,Prachandagad,Constructed,73.622327,18.275145,?????,????????,??????,????????? ???? -,????,??????????,Mountain,1403,650,Welhe,Pune,Maharashtra
274,40,WS,Barwai,Barwai Fort,,73.6241591,17.5195208,,,,,,,,,,,,
415,27,SK,Kulang,None,,73.64023,19.590194,?????,?????,??????,?????????,?????,??????????,Mountain,1475,550,Kulangwadi,Nashik,Maharashtra
499,111,SK,Madangad,None,Constructed,73.649391,19.589345,?????,?????,??????,"????????, ?????????",?????,??????????,Mountain,1470,650,"Ambevadi, Kulangvadi",Nashik,Maharashtra
458,70,SK,Durg,None,,73.649422,19.219583,?????,?????,??????,?????????,????,??????????,Mountain,1175,400,Durgwadi,Pune,Maharashtra
394,6,SK,Alang,Alang Fort,,73.660677,19.58288,????,?????,??????,?????,???????,??????????,Mountain,1480,640,Udhavne,Ahmednagar,Maharashtra
510,122,SK,Yeshwantgad-Redi,Yasavantgad,Karnataka Bellow Ghat,73.665658,15.752896,???????-????,?????,??????????,????,??????????,??????????,Seaside,0,50,Redi,Sindhudurg,Maharashtra
448,60,SK,Dhakoba,None,,73.672091,19.238731,??????,?????,??????,??????,????,??????????,Mountain,1264,350,Amboli,Pune,Maharashtra
508,120,SK,Morghan,None,,73.678308,19.690354,?????,?????,??????,??????,?????,??????????,Mountain,1052,300,Kharigav,Nashik,Maharashtra
236,2,WS,Rajgad,"Murumbdev, Nashibshahgad",Constructed,73.681612,18.246552,?????,"?????????, ?????????",??????,???????,????,??????????,Mountain,1376,550,Gunjavne,Pune,Maharashtra
343,109,WS,Kolakewadi,Kolakewadi Fort,,73.68495,17.4891691,,,,,,,,,,,,
441,53,SK,Jivghan,Jivdhan,Won,73.68556,19.276755,?????,?????,??????,?????,????,??????????,Mountain,1145,350,Ghatghar,Pune,Maharashtra
338,104,WS,Terekhol,Terekhol Fort,,73.686476,15.721441,???????,?????,??????????,???????,????? ????,????,Seaside,50,10,Terekhol,North Goa,Goa
249,15,WS,Prachitgad,Prachitgad,Constructed,73.6911392,17.2266028,,,,,,,,,,,,
437,49,SK,Jangli Jaigad,None,,73.693637,17.453404,????? ????,?????,??????,????,??????,??????????,Mountain,1029,300,Navje,Satara,Maharashtra
245,11,WS,Vasota,Vyaghragad,Constructed,73.697277,17.663403,??????,?????????,??????,"???????, ??? ???????",??????,??????????,Mountain,1165,430,"Bamnoli, Met Indavli",Satara,Maharashtra
511,123,SK,Ratangad,None,,73.701812,19.498902,?????,?????,??????,???????,???????,??????????,Mountain,1295,450,Ratanwadi,Ahmednagar,Maharashtra
496,108,SK,Bhairavgad-Moroshi,Saranggad,Constructed,73.714259,19.318473,??????-??????,???????,??????,??????,????,??????????,Mountain,864,400,Moroshi,Thane,Maharashtra
312,78,WS,Raireshwar,Raireshwar Fort/Plateau / Temple,,73.7206918,18.0463892,,,,,,,,,,,,
223,223,SB,Vishalgad,"Khilkhila, Khilgila, Sakkarlana, Khelna,Khilna",Karnataka Bellow Ghat,73.742866,16.905195,???????,"???????, ???????, ?????????, ?????",??????,??????,?????????,??????????,Mountain,1100,800,Gajapur,Kolhapur,Maharashtra
417,29,SK,Kenjalgad,None,,73.745629,18.025294,???????,?????,??????,"??????, ?????",??????,??????????,Mountain,1295,350,"Korle, Khavali",Satara,Maharashtra
238,4,WS,Kamalgad,Kamalgad,Constructed,73.745973,17.96844,?????,?????,??????,???????,??????,??????????,Mountain,1385,425,Nandgane,Satara,Maharashtra
436,48,SK,Chavand,"Jund, Prasannagad",,73.748336,19.236711,?????,"????, ?????????",??????,?????,????,??????????,Mountain,1065,250,Chavand,Pune,Maharashtra
317,83,WS,Jangali Jaigad,Jangali Jaigad Fort,,73.7536695,17.5263553,,,,,,,,,,,,
546,158,SK,Sinhagad,Kondhana,,73.755877,18.366317,??????,???????,??????,????????,????,??????????,Mountain,1325,450,Atkarwadi,Pune,Maharashtra
556,168,SK,Hatgad,None,,73.76055,20.542493,?????,?????,??????,?????,?????,??????????,Mountain,1114,150,Hatgad,Nashik,Maharashtra
469,81,SK,Nimgiri,None,,73.773513,19.295636,???????,?????,??????,???????,????,??????????,Mountain,1108,200,Nimgiri,Pune,Maharashtra
153,153,SB,Harishchandragad,,Constructed,73.775597,19.39257,???????????,?????,??????,????????,???????,??????????,Mountain,1424,700,Khireshwar,Ahmednagar,Maharashtra
326,92,WS,Hadsar,Parvatgad,Won,73.80245,19.270649,????,?????,??????,????????,????,??????????,Mountain,1028,300,Hadsarwadi,Pune,Maharashtra
391,3,SK,Achala,Achalagirigad,Won,73.815087,20.431581,????,?????,??????,"??????, ??????",?????,??????????,Mountain,1100,350,"Jambhali, Pimpri",Nashik,Maharashtra
422,34,SK,Gaganbavda,None,,73.816141,16.545586,????????,?????,??????,????????,?????????,??????????,Mountain,691,200,Gaganbavda,Kolhapur,Maharashtra
290,56,WS,Gagan Gad,"Gagan Gad, Gaganbawada",,73.8182885,16.5432537,,,,,,,,,,,,
311,77,WS,Vichitragad Rohida,Vichitragad Fort Rohida,,73.8208089,18.1020159,,,,,,,,,,,,
521,133,SK,Rohida,"Vichitragad, Rohideshwar",Won,73.821367,18.102938,??????,?????????,??????,?????????,????,??????????,Mountain,1116,300,Bajarwadi,Pune,Maharashtra
329,95,WS,Patta,Patta fort,,73.833314,19.709775,?????,?????,??????,????????,???????,??????????,Mountain,1390,250,Kokanwadi,Ahmednagar,Maharashtra
396,8,SK,Avandh,Aundha,,73.837045,19.7467,?????,?????,??????,???????,?????,??????????,Mountain,1320,450,Girwadi,Nashik,Maharashtra
286,52,WS,Shivgad,"Shivgad Fort, Dajipur",,73.8423809,16.4128898,,,,,,,,,,,,
514,126,SK,Rangna,Prasiddhagad,Won,73.846086,16.080903,??????,??????????,??????,????????,?????????,??????????,Mountain,679,25,Chikevadi,Kolhapur,Maharashtra
327,93,WS,Shivneri,Shivneri Fort,,73.8562858,19.1934786,,,,,,,,,,,,
399,11,SK,Ahivant,Ahivantgad,Won,73.860364,20.416555,??????,?????,??????,??????????,?????,??????????,Mountain,1228,350,Ahivantwadi,Nashik,Maharashtra
353,119,WS,Sangramdurg,Sangramdurg Fort Chakan,,73.862526,18.7567981,,,,,,,,,,,,
435,47,SK,Chakan,Sangramdurg,,73.862552,18.756963,????,????????????,??????,????,????,??????????,Ground,450,10,Chakan,Pune,Maharashtra
242,8,WS,Pandavgad,Pandavgad,Won,73.863306,17.998342,???????,?????,??????,?????????,??????,??????????,Mountain,1285,350,Gundewadi,Satara,Maharashtra
457,69,SK,Dategad,None,,73.864437,17.379259,??????,?????,??????,"????, ?????",??????,??????????,Mountain,1027,250,"Patan, Yerad",Satara,Maharashtra
284,50,WS,Pawangad,Pawangad fort,,73.8975221,17.8639791,,,,,,,,,,,,
328,94,WS,Aad,Aad Fort,,73.910651,19.741177,,,,,,,,,,,,
537,149,SK,Sajjangad,"Ashvalayangad, Navarastara, Parali",,73.911725,17.649375,???????,"??????????, ????????, ????",??????,????,??????,??????????,Mountain,980,270,Parali,Satara,Maharashtra
283,49,WS,Vairaatgad,Vairatgad,Constructed,73.918945,17.877992,,,,,,,,,,,,
544,156,SK,Salher,None,,73.945885,20.7222,???????,?????,??????,"???????, ???????",?????,??????????,Mountain,1565,700,"Salher, Waghambe",Nashik,Maharashtra
500,112,SK,Manasantoshgad,None,,73.965538,16.049366,?????????,?????,??????,"???????, ????????",??????????,??????????,Mountain,617,450,"Shivapur, Shirshinge",Sindhudurg,Maharashtra
445,57,SK,Dubera,None,,73.968413,19.790889,??????,?????,??????,??????,?????,??????????,Mountain,800,200,Dubera,Nashik,Maharashtra
405,17,SK,Kanhera,None,,73.968495,20.416762,???????,?????,??????,??????????,?????,??????????,Mountain,1100,250,Kanherwadi,Nashik,Maharashtra
501,113,SK,Manohargad,Manohar Mansantosh Gad,Won,73.969349,16.050766,???????,?????,??????,"???????, ????????",??????????,??????????,Mountain,680,500,"Shivapur, Shirshinge",Sindhudurg,Maharashtra
235,1,WS,Purandar,Purandargad,Won,73.974859,18.279542,??????,?????,??????,?????????,????,??????????,Mountain,1390,450,Narayanpur,Pune,Maharashtra
289,55,WS,Mahadev Gad,Mahadev Gad (Valley ),,73.9768805,15.9709592,,,,,,,,,,,,
281,47,WS,Subhanmangal,Subhanmangal Fort,,73.97747,18.155068,????????,?????,??????,?????,??????,??????????,Ground,810,5,Shirwal,Satara,Maharashtra
162,162,SB,Vajragad,Rudramal,Karnataka 1,73.989173,18.284096,??????,????????,??????,?????????,????,??????????,Mountain,1390,450,Narayanpur,Pune,Maharashtra
392,4,SK,Ajinkyatara,Azamtara,,73.994958,17.672606,???????????,???????,??????,??????,??????,??????????,Mountain,990,300,Satara,Satara,Maharashtra
258,24,WS,Jadhavgadh,"Fort Jadhavgadh, Pune",,74.002532,18.395741,,,,,,,,,,,,
465,77,SK,Dhodap,None,,74.030809,20.384765,????,?????,??????,?????,?????,??????????,Mountain,1451,550,Hatti,Nashik,Maharashtra
334,100,WS,DHODAP KILLA,DHODAP KILLA,,74.0311736,20.3848329,,,,,,,,,,,,
280,46,WS,Vandan,Vandan Fort,Won,74.034649,17.838906,????,?????,??????,"???????, ???????",??????,??????????,Mountain,1170,340,"Belmachi, Banwadi",Satara,Maharashtra
478,90,SK,Pargad,None,Constructed,74.044933,15.816947,?????,?????,??????,??????,??????????,??????????,Mountain,738,500,Namkhol,Sindhudurg,Maharashtra
243,9,WS,Chandan,Chandan,Won,74.044944,17.847071,????,?????,??????,"???????, ???????",??????,??????????,Mountain,1003,320,"Belmachi, Banwadi",Satara,Maharashtra
503,115,SK,Malhargad,Sonori,,74.04958,18.411956,????????,??????,??????,??????,????,??????????,Mountain,800,75,Sonori,Pune,Maharashtra
507,119,SK,Mulher,None,,74.062078,20.751298,???????,?????,??????,???????,?????,??????????,Mountain,1310,460,Mulher,Nashik,Maharashtra
509,121,SK,Mora,None,,74.067249,20.753546,????,?????,??????,???????,?????,??????????,Mountain,1295,450,Mulher,Nashik,Maharashtra
309,75,WS,Pemgiri,Pemgiri Fort,,74.0929955,19.4647293,,,,,,,,,,,,
28,28,SB,Panhalgad,"Panhala, Parnalparvat",Won,74.109006,16.810786,????????,"???????, ???????????",??????,???????,?????????,??????????,Mountain,955,300,Panhala,Kolhapur,Maharashtra
411,23,SK,Kanchan,"Kanchana,Kanchanagad",Constructed,74.112305,20.374399,?????,?????,??????,??????,?????,??????????,Mountain,1134,200,Kheldari,Nashik,Maharashtra
269,35,WS,Kalyangad,Nandgiri,,74.126863,17.779151,????????,???????,??????,????,??????,??????????,Mountain,1078,200,Palashi,Satara,Maharashtra
479,91,SK,Pavangad,Pavanagad,Constructed,74.126988,16.803906,??????,?????,??????,??????,?????????,??????????,Mountain,953,300,Vaghbil,Kolhapur,Maharashtra
320,86,WS,Bhuikot,Fort Bhuikot,,74.1274424,16.9818325,,,,,,,,,,,,
495,107,SK,Bhudargad,Bhudargad Fort,,74.14351,16.250612,??????,?????,??????,??????,?????????,??????????,Mountain,978,200,Bhudargad,Kolhapur,Maharashtra
480,92,SK,Pisol,None,,74.224646,20.85113,?????,?????,??????,"?????????, ??????",????,??????????,Mountain,950,300,"Pisolwadi, Nandin",Dhule,Maharashtra
462,74,SK,Daulatmangal,Bhuleshwar,,74.241304,18.435468,????????,????????,??????,???,????,??????????,Mountain,822,200,Yavat,Pune,Maharashtra
325,91,WS,Machindragad,Machchindragad,Constructed,74.2686296,17.1633236,,,,,,,,,,,,
446,58,SK,Dermal,None,,74.28538,20.852224,??????,?????,??????,"???????, ??????",?????,??????????,Mountain,1076,300,"Bilpuri, Tinghri",Nashik,Maharashtra
321,87,WS,Bahadurwadi,Fort Bahadurwadi,,74.3137047,16.9086719,,,,,,,,,,,,
536,148,SK,Santoshgad,"Tathawda, Santosh Gadh",,74.323066,17.858367,???????,??????,??????,??????,??????,??????????,Mountain,906,150,Tathavda,Satara,Maharashtra
494,106,SK,Bhamer,None,,74.335992,21.070607,?????,?????,??????,?????,????,??????????,Mountain,745,200,Bhamer,Dhule,Maharashtra
356,122,WS,Bhuykot Supe,Bhuykot Killa Supe 412204,,74.3772258,18.333179,,,,,,,,,,,,
318,84,WS,Bagani,Bagani Fort,,74.3818393,16.9061989,,,,,,,,,,,,
310,76,WS,Katra,Katra Fort,,74.3909705,20.1982567,,,,,,,,,,,,
331,97,WS,Palashi,Palashi Fort,,74.4008802,19.2820979,,,,,,,,,,,,
293,59,WS,Samangad,Samangad Fort,,74.4012635,16.173006,,,,,,,,,,,,
120,120,SB,Bhushangad,Bhushangad Fort,Constructed,74.4067526,17.4648883,,,,,,,,,,,,
324,90,WS,Varugad,Varugad,Constructed,74.4423723,17.8526365,,,,,,,,,,,,
389,1,SK,Ankai,Fort Ankai,,74.454789,20.191275,?????,?????,??????,?????,?????,??????????,Mountain,980,350,Ankai,Nashik,Maharashtra
305,71,WS,Tankai,Fort Tankai,,74.448304,20.187094,?????,?????,??????,?????,?????,??????????,Mountain,854,300,Ankai,Nashik,Maharashtra
262,28,WS,Mahimangad.,Mahimangad Fort.,,74.4633391,17.7019752,,,,,,,,,,,,
404,16,SK,Kankral,None,,74.486725,20.706696,??????,?????,??????,"???????, ????",?????,??????????,Mountain,755,150,"Kankrale, Garbad",Nashik,Maharashtra
332,98,WS,Mahaji Shinde Killa,"Mahaji Shinde Fort, jamgaon,Ahmednagar",,74.51683,19.067066,,,,,,,,,,,,
347,113,WS,Malegaon,Malegaon Fort,,74.5303807,20.5458411,,,,,,,,,,,,
423,35,SK,Galna,None,,74.532709,20.772677,?????,?????,??????,"?????, ????????, ??????",?????,??????????,Mountain,710,200,"Galne, Dongrale, Tinghri",Nashik,Maharashtra
291,57,WS,Sangli,Sangli Fort,,74.5658787,16.858339,,,,,,,,,,,,
487,99,SK,Bahadurgad,None,Won,74.704489,18.50906,????????,?????,??????,??????,???????,??????????,Ground,570,10,Pedgaon,Ahmednagar,Maharashtra
307,73,WS,Manikpunj,Manikpunj fort,,74.7233284,20.238271,,,,,,,,,,,,
522,134,SK,Laling,None,,74.739308,20.811417,?????,?????,??????,?????,????,??????????,Mountain,593,200,Laling,Dhule,Maharashtra
296,62,WS,Manjarsumba.,Manjarsumba Fort.,,74.748981,19.2507253,,,,,,,,,,,,
398,10,SK,Ahmadnagar,Ahmednagar Fort,,74.754903,19.095558,???????,?????,??????,???????,???????,??????????,Ground,550,10,Ahmadnagar,Ahmednagar,Maharashtra
552,164,SK,Songir,None,,74.785855,21.082342,??????,?????,??????,??????,????,??????????,Mountain,550,70,Songir,Dhule,Maharashtra
322,88,WS,Koldurg,Koldurg fort,,74.840734,17.2312961,,,,,,,,,,,,
304,70,WS,Rajdeher,Rajdeher fort,,74.8887348,20.3019685,,,,,,,,,,,,
306,72,WS,Pedka,Pedka Fort,,74.9639493,20.2452016,,,,,,,,,,,,
379,145,WS,Amalner,Amalner Killa,,75.0666887,21.0394802,,,,,,,,,,,,
362,128,WS,Tembhurni,Tembhurni Fort,,75.1896324,18.0283972,,,,,,,,,,,,
299,65,WS,Karmala,Karmala Fort,,75.191233,18.4085075,,,,,,,,,,,,
308,74,WS,Lonjha,"Lonjha Fort,Lonjagad",Constructed,75.2045166,20.4205931,,,,,,,,,,,,
461,73,SK,Devgiri,"Devgad, Dharagiri, Daulatabad",,75.21251,19.942046,???????,"?????, ????????, ????????",??????,????????,????????,??????????,Mountain,900,200,Daulatabad,Aurangabad,Maharashtra
301,67,WS,Deogiri Daulatabad,Deogiri Daulatabad Fort,,75.2131507,19.9427145,,,,,,,,,,,,
302,68,WS,Antur,Antur Fort,,75.2354157,20.428541,,,,,,,,,,,,
375,141,WS,GAHININATH GAD,GAHININATH GAD,,75.2651238,18.9165377,,,,,,,,,,,,
344,110,WS,Sutonda,Sutonda Fort,,75.355407,20.4697472,,,,,,,,,,,,
352,118,WS,Mangalwedha,Mangalwedha Fort,,75.44416,17.5107534,,,,,,,,,,,,
475,87,SK,Parinda,Paranda Fort Mahadwar,,75.453021,18.269836,??????,?????,??????,??????,???????,??????????,Ground,730,30,Parinda,Dharashiv,Maharashtra
298,64,WS,Kharda,Fort of Kharda,,75.4747868,18.6332224,,,,,,,,,,,,
350,116,WS,Machanur,Machanur Fort,,75.5619351,17.5679238,,,,,,,,,,,,
345,111,WS,Janjala,Janjala Fort,,75.5793041,20.5616088,,,,,,,,,,,,
382,148,WS,Ahilya,Ahilya Fort,,75.586826,22.1699246,,,,,,,,,,,,
468,80,SK,Narayangad,None,,74.032794,19.115827,????????,?????,??????,?????,????,??????????,Mountain,1019,200,Khodad,Pune,Maharashtra
378,144,WS,Vetalwadi Halda,Vetalwadi Killa Halda Tal Sillod Dist Aurangabad,,75.621521,20.5540014,,,,,,,,,,,,
354,120,WS,Rohilagad,Rohilagad Fort,,75.6640183,19.6975507,,,,,,,,,,,,
300,66,WS,Shivgadh,Shivgadh Fort,,75.7036975,19.3601919,,,,,,,,,,,,
530,142,SK,Bijapur,None,,75.719351,16.826056,???????,?????,??????,???????,???????,???????,Ground,600,15,Bijapur,Bijapur,Karnataka
381,147,WS,Shivneri,Shivneri Killa,,73.858852,19.197256,???????,?????,??????,??????,????,??????????,Mountain,1019,200,Junnar,Pune,Maharashtra
553,165,SK,Solapur,Solapur Bhuikot,,75.902043,17.674019,???????,?????,??????,???????,???????,??????????,Ground,550,10,Solapur,Solapur,Maharashtra
372,138,WS,Jafrabad Killa,Jafrabad Killa Fort,,76.0080003,20.1863801,,,,,,,,,,,,
297,63,WS,Dharur,Dharur Fort,,76.1036642,18.8189095,,,,,,,,,,,,
373,139,WS,Deulghat,Deulghat Killa,,76.1152607,20.5142122,,,,,,,,,,,,
467,79,SK,Naldurg,Naldurg Fort,,76.288881,17.818421,???????,?????,??????,???????,???????,??????????,Ground,780,50,Naldurg,Dharashiv,Maharashtra
383,149,WS,Asirgarh,Asirgarh Fort,,76.29272,21.471813,,,,,,,,,,,,
361,127,WS,Ausa,Ausa Fort,,76.4993217,18.2406565,,,,,,,,,,,,
337,103,WS,Dharmapuri,Dharmapuri Fort,,76.6323262,18.7303047,,,,,,,,,,,,
360,126,WS,Suppa,Suppa Fort,,76.7634975,18.8468919,,,,,,,,,,,,
384,150,WS,Balapur,Balapur fort,,76.7737538,20.6703668,,,,,,,,,,,,
364,130,WS,Gulbarga,Gulbarga Fort,,76.8295577,17.3417985,,,,,,,,,,,,
357,123,WS,Basavakalyan,Basavakalyan Fort,,76.9486424,17.8843749,,,,,,,,,,,,
386,152,WS,Asad Gad Akola,Asad Gad Fort Akola,,76.9900476,20.7062445,,,,,,,,,,,,
366,132,WS,Shahnur,Shahnur Fort,,77.0262323,21.2363049,,,,,,,,,,,,
466,78,SK,Narnala,None,,77.027988,21.241299,??????,?????,??????,??????,?????,??????????,Mountain,760,75,Narnala,Akola,Maharashtra
359,125,WS,Udaygiri,Udaygiri Fort,,77.1179358,18.4020454,,,,,,,,,,,,
388,154,WS,Gawilghur,Gawilghur Fort,,77.3357248,21.3826738,,,,,,,,,,,,
424,36,SK,Gawilgad,None,,77.338985,21.374313,???????,?????,??????,???????,???????,??????????,Mountain,1150,350,Chikhaldara,Amravati,Maharashtra
367,133,WS,Achalpur,Achalpur Fort,,77.5066781,21.2545718,,,,,,,,,,,,
358,124,WS,Bidar,Bidar Fort,,77.5263704,17.9225933,,,,,,,,,,,,
365,131,WS,Mahur,Mahur Fort,,77.9267873,19.8368462,,,,,,,,,,,,
385,151,WS,Nizamabad,Nizamabad Fort,,78.0797173,18.6638826,,,,,,,,,,,,
370,136,WS,Shergarh,Shergarh Fort,,78.2656091,21.6401084,,,,,,,,,,,,
369,135,WS,Sergarh,Sergarh Fort,,78.3034685,21.6993894,,,,,,,,,,,,
371,137,WS,Devgarh Chhindwara,Devgarh Fort Chhindwara,,78.7328872,21.8827301,,,,,,,,,,,,
368,134,WS,Ghosala,Ghosala Fort,,79.056373,21.175799,,,,,,,,,,,,
387,153,WS,Manikgarh,Manikgarh Fort,,79.1273975,19.6756056,,,,,,,,,,,,
440,52,SK,Jinjee,None,,79.400667,12.250501,?????,?????,??????,?????,??????????,????????,Mountain,270,240,Jinjee,Villupuram,Tamil Nadu
